NORAD_CAT_ID,OBJECT_NAME,OBJECT_TYPE,EPOCH,MEAN_MOTION,ECCENTRICITY,INCLINATION,RA_OF_ASC_NODE,ARG_OF_PERICENTER,MEAN_ANOMALY,BSTAR,MEAN_MOTION_DOT,MEAN_MOTION_DDOT,TLE_LINE0,TLE_LINE1,TLE_LINE2,SEMIMAJOR_AXIS,PERIOD,APOGEE,PERIGEE,DECAYED
56494.0,STARLINK-5530,PAYLOAD,2024-08-03 11:28:23,14.98325548,0.0003042,70.0,134.9166,271.745,88.336,-1.7848e-05,-3.06e-06,0.0,0 STARLINK-5530,1 56494U 23064AY  24216.47804837 -.00000306  00000-0 -17848-4 0  9992,2 56494  70.0000 134.9166 0003042 271.7450  88.3360 14.98325548 68878,6950.207,96.107,574.186,569.957,0.0
56494.0,STARLINK-5530,PAYLOAD,2024-08-03 21:05:11,14.98336407,0.000302,70.0001,133.9072,268.4976,91.5837,-7.9455e-05,-1.041e-05,0.0,0 STARLINK-5530,1 56494U 23064AY  24216.87860373 -.00001041  00000-0 -79455-4 0  9992,2 56494  70.0001 133.9072 0003020 268.4976  91.5837 14.98336407 69294,6950.173,96.107,574.137,569.939,0.0
56494.0,STARLINK-5530,PAYLOAD,2024-08-03 22:41:19,14.98335927,0.0003016,70.0001,133.7387,269.9399,90.1414,-7.9046e-05,-1.036e-05,0.0,0 STARLINK-5530,1 56494U 23064AY  24216.94536392 -.00001036  00000-0 -79046-4 0  9991,2 56494  70.0001 133.7387 0003016 269.9399  90.1414 14.98335927 68944,6950.175,96.107,574.136,569.943,0.0
56494.0,STARLINK-5530,PAYLOAD,2024-08-04 05:05:50,14.98343933,0.0002897,70.0003,133.0663,264.8149,95.2679,2.0609e-05,1.53e-06,0.0,0 STARLINK-5530,1 56494U 23064AY  24217.21239455  .00000153  00000-0  20609-4 0  9990,2 56494  70.0003 133.0663 0002897 264.8149  95.2679 14.98343933 69349,6950.15,96.106,574.028,570.001,0.0
56494.0,STARLINK-5530,PAYLOAD,2024-08-04 21:07:12,14.98326835,0.0002608,70.0008,131.3829,259.6137,100.4728,0.00015889,1.803e-05,0.0,0 STARLINK-5530,1 56494U 23064AY  24217.88000032  .00001803  00000-0  15889-3 0  9996,2 56494  70.0008 131.3829 0002608 259.6137 100.4728 14.98326835 69445,6950.203,96.107,573.88,570.255,0.0
56494.0,STARLINK-5530,PAYLOAD,2024-08-04 22:43:20,14.98328019,0.0002619,70.0008,131.215,262.4893,97.5969,0.00013367,1.502e-05,0.0,0 STARLINK-5530,1 56494U 23064AY  24217.94676058  .00001502  00000-0  13367-3 0  9995,2 56494  70.0008 131.2150 0002619 262.4893  97.5969 14.98328019 69094,6950.199,96.107,573.884,570.244,0.0
56494.0,STARLINK-5530,PAYLOAD,2024-08-05 03:31:43,14.98332694,0.0002516,70.001,130.7087,263.7416,96.3457,0.00023253,2.683e-05,0.0,0 STARLINK-5530,1 56494U 23064AY  24218.14703495  .00002683  00000-0  23253-3 0  9990,2 56494  70.0010 130.7087 0002516 263.7416  96.3457 14.98332694 69487,6950.185,96.107,573.798,570.301,0.0
56494.0,STARLINK-5530,PAYLOAD,2024-08-05 21:09:14,14.98321114,0.0002589,70.0007,128.8583,257.085,103.002,-0.00012582,-1.593e-05,0.0,0 STARLINK-5530,1 56494U 23064AY  24218.88141407 -.00001593  00000-0 -12582-3 0  9994,2 56494  70.0007 128.8583 0002589 257.0850 103.0020 14.98321114 69599,6950.22,96.108,573.885,570.286,0.0
56494.0,STARLINK-5530,PAYLOAD,2024-08-05 22:45:22,14.98319516,0.0002682,70.001,128.6908,261.1798,98.9058,-0.00014987,-1.88e-05,0.0,0 STARLINK-5530,1 56494U 23064AY  24218.94817621 -.00001880  00000-0 -14987-3 0  9999,2 56494  70.0010 128.6908 0002682 261.1798  98.9058 14.98319516 69241,6950.225,96.108,573.954,570.226,0.0
56494.0,STARLINK-5530,PAYLOAD,2024-08-06 03:33:46,14.98316893,0.0002767,70.0004,128.1839,266.8156,93.2686,-0.00016053,-2.007e-05,0.0,0 STARLINK-5530,1 56494U 23064AY  24219.14845991 -.00002007  00000-0 -16053-3 0  9991,2 56494  70.0004 128.1839 0002767 266.8156  93.2686 14.98316893 69639,6950.233,96.108,574.022,570.175,0.0
56494.0,STARLINK-5530,PAYLOAD,2024-08-06 21:11:14,14.98336324,0.0003118,69.9998,126.3328,271.0969,88.9832,9.5183e-06,2.1e-07,0.0,0 STARLINK-5530,1 56494U 23064AY  24219.88280545  .00000021  00000-0  95183-5 0  9995,2 56494  69.9998 126.3328 0003118 271.0969  88.9832 14.98336324 69749,6950.173,96.107,574.205,569.871,0.0
56494.0,STARLINK-5530,PAYLOAD,2024-08-07 03:35:45,14.9834496,0.0003033,69.9998,125.6592,270.4169,89.6643,9.9562e-05,1.096e-05,0.0,0 STARLINK-5530,1 56494U 23064AY  24220.14983659  .00001096  00000-0  99562-4 0  9999,2 56494  69.9998 125.6592 0003033 270.4169  89.6643 14.98344960 69782,6950.147,96.106,574.12,569.904,0.0
56494.0,STARLINK-5530,PAYLOAD,2024-08-07 21:13:14,14.98331699,0.0002465,70.0008,123.8064,263.5634,96.5244,0.00040809,4.78e-05,0.0,0 STARLINK-5530,1 56494U 23064AY  24220.88419357  .00004780  00000-0  40809-3 0  9991,2 56494  70.0008 123.8064 0002465 263.5634  96.5244 14.98331699 69531,6950.188,96.107,573.766,570.339,0.0
56494.0,STARLINK-5530,PAYLOAD,2024-08-08 03:37:45,14.98332435,0.0002453,70.0018,123.136,262.1359,97.9522,0.00065908,7.78e-05,0.0,0 STARLINK-5530,1 56494U 23064AY  24221.15122653  .00007780  00000-0  65908-3 0  9992,2 56494  70.0018 123.1360 0002453 262.1359  97.9522 14.98332435 69577,6950.185,96.107,573.755,570.345,0.0
56494.0,STARLINK-5530,PAYLOAD,2024-08-08 21:15:15,14.98334816,0.0002716,70.0006,121.2865,258.8333,101.2521,-7.8384e-05,-1.028e-05,0.0,0 STARLINK-5530,1 56494U 23064AY  24221.88559965 -.00001028  00000-0 -78384-4 0  9996,2 56494  70.0006 121.2865 0002716 258.8333 101.2521 14.98334816 70046,6950.178,96.107,573.931,570.155,0.0
56494.0,STARLINK-5530,PAYLOAD,2024-08-08 22:51:23,14.98336471,0.0002196,69.9999,121.1177,240.6724,119.4216,-0.00012126,-1.54e-05,0.0,0 STARLINK-5530,1 56494U 23064AY  24221.95235978 -.00001540  00000-0 -12126-3 0  9999,2 56494  69.9999 121.1177 0002196 240.6724 119.4216 14.98336471 69694,6950.173,96.107,573.564,570.512,0.0
56494.0,STARLINK-5530,PAYLOAD,2024-08-09 10:04:20,14.98329367,0.0002451,70.0013,119.9371,271.3436,88.7442,-0.0001811,-2.253e-05,0.0,0 STARLINK-5530,1 56494U 23064AY  24222.41968618 -.00002253  00000-0 -18110-3 0  9996,2 56494  70.0013 119.9371 0002451 271.3436  88.7442 14.98329367 70125,6950.195,96.107,573.763,570.356,0.0
56494.0,STARLINK-5530,PAYLOAD,2024-08-09 21:17:16,14.98334577,0.0002587,70.0008,118.7584,261.4655,98.6211,-0.00019875,-2.464e-05,0.0,0 STARLINK-5530,1 56494U 23064AY  24222.88700209 -.00002464  00000-0 -19875-3 0  9990,2 56494  70.0008 118.7584 0002587 261.4655  98.6211 14.98334577 69834,6950.179,96.107,573.842,570.246,0.0
56494.0,STARLINK-5530,PAYLOAD,2024-08-10 03:41:48,14.98341265,0.000259,70.001,118.0854,266.4415,93.6448,-0.00010431,-1.338e-05,0.0,0 STARLINK-5530,1 56494U 23064AY  24223.15403455 -.00001338  00000-0 -10431-3 0  9992,2 56494  70.0010 118.0854 0002590 266.4415  93.6448 14.98341265 70238,6950.158,96.106,573.823,570.223,0.0
56494.0,STARLINK-5530,PAYLOAD,2024-08-10 21:19:17,14.98323371,0.0002528,70.0013,116.2355,249.2269,110.862,0.00018603,2.127e-05,0.0,0 STARLINK-5530,1 56494U 23064AY  24223.88839726  .00002127  00000-0  18603-3 0  9990,2 56494  70.0013 116.2355 0002528 249.2269 110.8620 14.98323371 70348,6950.213,96.107,573.835,570.321,0.0
56494.0,STARLINK-5530,PAYLOAD,2024-08-10 22:55:25,14.98322985,0.0002714,70.0015,116.0669,260.1338,99.9515,0.0002111,2.426e-05,0.0,0 STARLINK-5530,1 56494U 23064AY  24223.95515733  .00002426  00000-0  21110-3 0  9996,2 56494  70.0015 116.0669 0002714 260.1338  99.9515 14.98322985 69991,6950.215,96.107,573.966,570.193,0.0
56494.0,STARLINK-5530,PAYLOAD,2024-08-11 02:07:40,14.98337163,0.0002722,70.0007,115.7291,266.2398,93.845,0.0002733,3.17e-05,0.0,0 STARLINK-5530,1 56494U 23064AY  24224.08866731  .00003170  00000-0  27330-3 0  9995,2 56494  70.0007 115.7291 0002722 266.2398  93.8450 14.98337163 70370,6950.171,96.107,573.928,570.144,0.0
56494.0,STARLINK-5530,PAYLOAD,2024-08-11 10:08:21,14.98330192,0.0002649,70.0023,114.8865,281.5171,78.569,0.00013015,1.46e-05,0.0,0 STARLINK-5530,1 56494U 23064AY  24224.42247645  .00001460  00000-0  13015-3 0  9995,2 56494  70.0023 114.8865 0002649 281.5171  78.5690 14.98330192 70429,6950.192,96.107,573.898,570.216,0.0
56494.0,STARLINK-5530,PAYLOAD,2024-08-11 22:57:26,14.98333213,0.0001953,70.0024,113.5427,262.4912,97.6025,0.00018449,2.109e-05,0.0,0 STARLINK-5530,1 56494U 23064AY  24224.95655518  .00002109  00000-0  18449-3 0  9992,2 56494  70.0024 113.5427 0001953 262.4912  97.6025 14.98333213 70148,6950.183,96.107,573.405,570.691,0.0
56494.0,STARLINK-5530,PAYLOAD,2024-08-12 10:10:22,14.98336762,0.000267,70.0018,112.3595,260.8373,99.2484,8.1742e-05,8.83e-06,0.0,0 STARLINK-5530,1 56494U 23064AY  24225.42387241  .00000883  00000-0  81742-4 0  9994,2 56494  70.0018 112.3595 0002670 260.8373  99.2484 14.98336762 70570,6950.172,96.107,573.893,570.181,0.0
56494.0,STARLINK-5530,PAYLOAD,2024-08-12 21:23:16,14.98370159,0.0002833,70.0,111.1836,273.5648,86.5187,0.00039228,4.596e-05,0.0,0 STARLINK-5530,1 56494U 23064AY  24225.89115885  .00004596  00000-0  39228-3 0  9994,2 56494  70.0000 111.1836 0002833 273.5648  86.5187 14.98370159 70648,6950.069,96.104,573.903,569.965,0.0
56494.0,STARLINK-5530,PAYLOAD,2024-08-12 22:59:23,14.98373835,0.0002691,70.0012,111.0139,261.12,98.9654,0.00058845,6.943e-05,0.0,0 STARLINK-5530,1 56494U 23064AY  24225.95790827  .00006943  00000-0  58845-3 0  9990,2 56494  70.0012 111.0139 0002691 261.1200  98.9654 14.98373835 70296,6950.057,96.104,573.793,570.052,0.0
56494.0,STARLINK-5530,PAYLOAD,2024-08-13 02:11:43,14.98317816,0.0002814,69.9997,110.6784,270.6021,89.4815,-0.00022874,-2.82e-05,0.0,0 STARLINK-5530,1 56494U 23064AY  24226.09147976 -.00002820  00000-0 -22874-3 0  9992,2 56494  69.9997 110.6784 0002814 270.6021  89.4815 14.98317816 70672,6950.231,96.108,574.051,570.14,0.0
56494.0,STARLINK-5530,PAYLOAD,2024-08-13 10:12:27,14.98284547,0.0002222,70.0021,109.8351,271.4628,88.6276,-0.000495,-5.987e-05,0.0,0 STARLINK-5530,1 56494U 23064AY  24226.42531415 -.00005987  00000-0 -49500-3 0  9996,2 56494  70.0021 109.8351 0002222 271.4628  88.6276 14.98284547 70720,6950.333,96.11,573.743,570.654,0.0
56494.0,STARLINK-5530,PAYLOAD,2024-08-13 23:01:32,14.98292232,0.0001646,70.0012,108.4884,265.9911,94.106,-0.00034875,-4.247e-05,0.0,0 STARLINK-5530,1 56494U 23064AY  24226.95939987 -.00004247  00000-0 -34875-3 0  9997,2 56494  70.0012 108.4884 0001646 265.9911  94.1060 14.98292232 70440,6950.31,96.109,573.319,571.031,0.0
